{
  "type": "FeatureCollection",
  "features": [
    {
      "type": "Feature",
      "properties": {
        "norad_id": 33679,
        "name": "FENGYUN 1C DEB",
        "group": "fengyun-1c-debris",
        "lat": -9.78623778706623,
        "lon": -120.3528343719459,
        "alt_km": 558.3651304700024,
        "timestamp": "2025-12-19T06:59:44.195304+00:00",
        "meta_object_name": "FENGYUN 1C DEB",
        "meta_object_id": "1999-025DFQ",
        "meta_epoch": "2025-12-18T15:45:28.186272",
        "meta_mean_motion": 15.02864483,
        "meta_eccentricity": 0.01477073,
        "meta_inclination": 99.3514,
        "meta_ra_of_asc_node": 60.5104,
        "meta_arg_of_pericenter": 280.555,
        "meta_mean_anomaly": 77.906,
        "meta_ephemeris_type": 0,
        "meta_classification_type": "U",
        "meta_norad_cat_id": 33679,
        "meta_element_set_no": 999,
        "meta_rev_at_epoch": 94212,
        "meta_bstar": 0.0011030343,
        "meta_mean_motion_dot": 0.00018719,
        "meta_mean_motion_ddot": 0,
        "tle_line1": "1 33679U 99025DFQ 25352.65657623  .00018719  00000+0  11030-2 0  9992",
        "tle_line2": "2 33679  99.3514  60.5104 0147707 280.5550  77.9060 15.02864483942126"
      },
      "geometry": {
        "type": "Point",
        "coordinates": [
          -120.3528343719459,
          -9.78623778706623
        ]
      }
    },
    {
      "type": "Feature",
      "properties": {
        "norad_id": 33682,
        "name": "FENGYUN 1C DEB",
        "group": "fengyun-1c-debris",
        "lat": 6.298780317742193,
        "lon": 39.31787191087456,
        "alt_km": 793.7920689674575,
        "timestamp": "2025-12-19T06:59:44.195313+00:00",
        "meta_object_name": "FENGYUN 1C DEB",
        "meta_object_id": "1999-025DFT",
        "meta_epoch": "2025-12-17T09:31:18.131232",
        "meta_mean_motion": 14.26710697,
        "meta_eccentricity": 0.00282831,
        "meta_inclination": 99.4216,
        "meta_ra_of_asc_node": 38.3301,
        "meta_arg_of_pericenter": 69.3704,
        "meta_mean_anomaly": 291.0503,
        "meta_ephemeris_type": 0,
        "meta_classification_type": "U",
        "meta_norad_cat_id": 33682,
        "meta_element_set_no": 999,
        "meta_rev_at_epoch": 91764,
        "meta_bstar": 0.0011185678,
        "meta_mean_motion_dot": 2.668e-05,
        "meta_mean_motion_ddot": 0,
        "tle_line1": "1 33682U 99025DFT 25351.39673763  .00002668  00000+0  11186-2 0  9997",
        "tle_line2": "2 33682  99.4216  38.3301 0028283  69.3704 291.0503 14.26710697917645"
      },
      "geometry": {
        "type": "Point",
        "coordinates": [
          39.31787191087456,
          6.298780317742193
        ]
      }
    },
    {
      "type": "Feature",
      "properties": {
        "norad_id": 33684,
        "name": "FENGYUN 1C DEB",
        "group": "fengyun-1c-debris",
        "lat": 8.388641068503171,
        "lon": 48.29816245844401,
        "alt_km": 515.7537364204309,
        "timestamp": "2025-12-19T06:59:44.195323+00:00",
        "meta_object_name": "FENGYUN 1C DEB",
        "meta_object_id": "1999-025DFV",
        "meta_epoch": "2025-12-18T14:39:31.950144",
        "meta_mean_motion": 14.73225366,
        "meta_eccentricity": 0.02868054,
        "meta_inclination": 99.0649,
        "meta_ra_of_asc_node": 48.8866,
        "meta_arg_of_pericenter": 322.2492,
        "meta_mean_anomaly": 35.8893,
        "meta_ephemeris_type": 0,
        "meta_classification_type": "U",
        "meta_norad_cat_id": 33684,
        "meta_element_set_no": 999,
        "meta_rev_at_epoch": 93075,
        "meta_bstar": 0.00065410196,
        "meta_mean_motion_dot": 8.116e-05,
        "meta_mean_motion_ddot": 0,
        "tle_line1": "1 33684U 99025DFV 25352.61078646  .00008116  00000+0  65410-3 0  9998",
        "tle_line2": "2 33684  99.0649  48.8866 0286805 322.2492  35.8893 14.73225366930755"
      },
      "geometry": {
        "type": "Point",
        "coordinates": [
          48.29816245844401,
          8.388641068503171
        ]
      }
    },
    {
      "type": "Feature",
      "properties": {
        "norad_id": 33687,
        "name": "FENGYUN 1C DEB",
        "group": "fengyun-1c-debris",
        "lat": 26.680097351572666,
        "lon": -175.1709600986272,
        "alt_km": 582.0024000231433,
        "timestamp": "2025-12-19T06:59:44.195333+00:00",
        "meta_object_name": "FENGYUN 1C DEB",
        "meta_object_id": "1999-025DFY",
        "meta_epoch": "2025-12-16T18:14:40.406496",
        "meta_mean_motion": 15.18952421,
        "meta_eccentricity": 0.01143186,
        "meta_inclination": 98.9961,
        "meta_ra_of_asc_node": 357.2522,
        "meta_arg_of_pericenter": 322.8022,
        "meta_mean_anomaly": 36.5326,
        "meta_ephemeris_type": 0,
        "meta_classification_type": "U",
        "meta_norad_cat_id": 33687,
        "meta_element_set_no": 999,
        "meta_rev_at_epoch": 71569,
        "meta_bstar": 0.0012331719,
        "meta_mean_motion_dot": 0.00030657,
        "meta_mean_motion_ddot": 0,
        "tle_line1": "1 33687U 99025DFY 25350.76018989  .00030657  00000+0  12332-2 0  9998",
        "tle_line2": "2 33687  98.9961 357.2522 0114318 322.8022  36.5326 15.18952421715695"
      },
      "geometry": {
        "type": "Point",
        "coordinates": [
          -175.1709600986272,
          26.680097351572666
        ]
      }
    },
    {
      "type": "Feature",
      "properties": {
        "norad_id": 33688,
        "name": "FENGYUN 1C DEB",
        "group": "fengyun-1c-debris",
        "lat": 15.53135169155243,
        "lon": 92.71447915037439,
        "alt_km": 766.0899928939234,
        "timestamp": "2025-12-19T06:59:44.195343+00:00",
        "meta_object_name": "FENGYUN 1C DEB",
        "meta_object_id": "1999-025DFZ",
        "meta_epoch": "2025-12-18T06:00:25.686720",
        "meta_mean_motion": 14.45701057,
        "meta_eccentricity": 0.00542223,
        "meta_inclination": 99.3504,
        "meta_ra_of_asc_node": 94.1927,
        "meta_arg_of_pericenter": 246.8962,
        "meta_mean_anomaly": 112.6506,
        "meta_ephemeris_type": 0,
        "meta_classification_type": "U",
        "meta_norad_cat_id": 33688,
        "meta_element_set_no": 999,
        "meta_rev_at_epoch": 91561,
        "meta_bstar": 0.0024423752,
        "meta_mean_motion_dot": 8.761e-05,
        "meta_mean_motion_ddot": 0,
        "tle_line1": "1 33688U 99025DFZ 25352.25029730  .00008761  00000+0  24424-2 0  9997",
        "tle_line2": "2 33688  99.3504  94.1927 0054222 246.8962 112.6506 14.45701057915611"
      },
      "geometry": {
        "type": "Point",
        "coordinates": [
          92.71447915037439,
          15.53135169155243
        ]
      }
    },
    {
      "type": "Feature",
      "properties": {
        "norad_id": 33689,
        "name": "FENGYUN 1C DEB",
        "group": "fengyun-1c-debris",
        "lat": 38.08640486341757,
        "lon": -6.161219494829305,
        "alt_km": 740.6047392620176,
        "timestamp": "2025-12-19T06:59:44.195353+00:00",
        "meta_object_name": "FENGYUN 1C DEB",
        "meta_object_id": "1999-025DGA",
        "meta_epoch": "2025-12-17T19:05:05.195328",
        "meta_mean_motion": 14.45178075,
        "meta_eccentricity": 0.00483544,
        "meta_inclination": 99.565,
        "meta_ra_of_asc_node": 359.7492,
        "meta_arg_of_pericenter": 136.8857,
        "meta_mean_anomaly": 42.1948,
        "meta_ephemeris_type": 0,
        "meta_classification_type": "U",
        "meta_norad_cat_id": 33689,
        "meta_element_set_no": 999,
        "meta_rev_at_epoch": 69603,
        "meta_bstar": 0.00077368921,
        "meta_mean_motion_dot": 2.694e-05,
        "meta_mean_motion_ddot": 0,
        "tle_line1": "1 33689U 99025DGA 25351.79519902  .00002694  00000+0  77369-3 0  9997",
        "tle_line2": "2 33689  99.5650 359.7492 0048354 136.8857  42.1948 14.45178075696030"
      },
      "geometry": {
        "type": "Point",
        "coordinates": [
          -6.161219494829305,
          38.08640486341757
        ]
      }
    },
    {
      "type": "Feature",
      "properties": {
        "norad_id": 33690,
        "name": "FENGYUN 1C DEB",
        "group": "fengyun-1c-debris",
        "lat": -6.423921582759236,
        "lon": -89.15935778392691,
        "alt_km": 744.0261359784372,
        "timestamp": "2025-12-19T06:59:44.195363+00:00",
        "meta_object_name": "FENGYUN 1C DEB",
        "meta_object_id": "1999-025DGB",
        "meta_epoch": "2025-12-18T05:19:31.905984",
        "meta_mean_motion": 14.51538272,
        "meta_eccentricity": 0.00300479,
        "meta_inclination": 98.6138,
        "meta_ra_of_asc_node": 90.7228,
        "meta_arg_of_pericenter": 32.2004,
        "meta_mean_anomaly": 328.1018,
        "meta_ephemeris_type": 0,
        "meta_classification_type": "U",
        "meta_norad_cat_id": 33690,
        "meta_element_set_no": 999,
        "meta_rev_at_epoch": 93299,
        "meta_bstar": 0.0017880769,
        "meta_mean_motion_dot": 7.153e-05,
        "meta_mean_motion_ddot": 0,
        "tle_line1": "1 33690U 99025DGB 25352.22189706  .00007153  00000+0  17881-2 0  9990",
        "tle_line2": "2 33690  98.6138  90.7228 0030047  32.2004 328.1018 14.51538272932994"
      },
      "geometry": {
        "type": "Point",
        "coordinates": [
          -89.15935778392691,
          -6.423921582759236
        ]
      }
    }
  ]
}